45159,ONEWEB-0056,2020,109.89,148.0,+,87.9,Active,1,LEO,Kazakhstan,UK,Commercial,Communications,Soyuz,1 45159U 20008AE  24266.44256099 -.00000469  00000+0 -13802-2 0  9999,2 45159  87.8979 162.1969 0001630  70.6345 289.4958 13.10373364225312,13.10373364,0.000163,LEO
45160,ONEWEB-0057,2020,109.89,148.0,+,87.9,Active,1,LEO,Kazakhstan,UK,Commercial,Communications,Soyuz,1 45160U 20008AF  24266.44920664 -.00000399  00000+0 -11805-2 0  9990,2 45160  87.8981 162.2000 0001681  74.4696 285.6616 13.10376553225481,13.10376553,0.0001681,LEO
45161,ONEWEB-0058,2020,109.89,148.0,+,87.9,Active,1,LEO,Kazakhstan,UK,Commercial,Communications,Soyuz,1 45161U 20008AG  24266.43607034 -.00000621  00000+0 -18154-2 0  9995,2 45161  87.8975 162.2319 0001754  78.2719 281.8605 13.10373665225552,13.10373665,0.0001754,LEO
45162,ONEWEB-0059,2020,109.89,148.0,+,87.9,Active,1,LEO,Kazakhstan,UK,Commercial,Communications,Soyuz,1 45162U 20008AH  24266.43260888 -.00000509  00000+0 -14944-2 0  9996,2 45162  87.8980 162.2167 0001846  77.0524 283.0810 13.10371982225454,13.10371982,0.0001846,LEO
45163,ONEWEB-0062,2020,109.89,148.0,+,87.9,Active,1,LEO,Kazakhstan,UK,Commercial,Communications,Soyuz,1 45163U 20008AJ  24266.45917628  .00000316  00000+0  86988-3 0  9992,2 45163  87.8982 162.1954 0002174  76.5975 283.5394 13.10378440225323,13.1037844,0.0002174,LEO
45164,ONEWEB-0065,2020,109.89,148.0,+,87.9,Active,1,LEO,Kazakhstan,UK,Commercial,Communications,Soyuz,1 45164U 20008AK  24266.43758264 -.00000593  00000+0 -17356-2 0  9991,2 45164  87.8985 162.2102 0001663  70.1135 290.0171 13.10372055225011,13.10372055,0.0001663,LEO
45424,ONEWEB-0066,2020,109.8,148.0,+,87.9,Active,1,LEO,Kazakhstan,UK,Commercial,Communications,Soyuz,1 45424U 20020A   24266.41756192  .00000280  00000+0  75510-3 0  9998,2 45424  87.8960 147.0939 0001441  87.3682 272.7611 13.11418105219740,13.11418105,0.0001441,LEO
45425,ONEWEB-0067,2020,109.81,148.0,+,87.9,Active,1,LEO,Kazakhstan,UK,Commercial,Communications,Soyuz,1 45425U 20020B   24266.37870573 -.00000370  00000+0 -10802-2 0  9998,2 45425  87.8952 147.0514 0001669  79.7805 280.3511 13.11412967219794,13.11412967,0.0001669,LEO
